OSCAR 7 (AO-7)          
1 07530U 74089B   26170.47889307 -.00000047  00000+0 -14457-5 0  9993
2 07530 101.9899 183.7495 0012599 125.8414  33.8516 12.53698153360808
PHASE 3B (AO-10)        
1 14129U 83058B   26168.36952042  .00000190  00000+0  00000+0 0  9993
2 14129  25.9123 219.5345 6010777 115.7182 316.6307  2.05868747295495
UOSAT 2 (UO-11)         
1 14781U 84021B   26170.36922180  .00000988  00000+0  10609-3 0  9996
2 14781  97.8059 135.9194 0007849 165.3072 194.8376 14.90787799257457
LUSAT (LO-19)           
1 20442U 90005G   26170.55409945  .00000068  00000+0  40989-4 0  9990
2 20442  98.8849 192.4250 0011244 193.9375 166.1500 14.34123783902738
EYESAT A (AO-27)        
1 22825U 93061C   26170.16751487  .00000072  00000+0  44294-4 0  9998
2 22825  98.6880 237.5804 0009541  94.6825 265.5447 14.30942746707289
ITAMSAT (IO-26)         
1 22826U 93061D   26170.42594851  .00000072  00000+0  44100-4 0  9994
2 22826  98.6829 237.7564 0010030  79.0744 281.1567 14.31369768707634
RADIO ROSTO (RS15)      
1 23439U 94085A   26170.59927559 -.00000036  00000+0  19508-3 0  9999
2 23439  64.8186 299.3149 0156010   3.4301 356.7657 11.27583459296176
JAS-2 (FO-29)           
1 24278U 96046B   26170.30734483 -.00000013  00000+0  19676-4 0  9993
2 24278  98.5238  18.8890 0350921  90.9460 273.1898 13.53274520473455
TECHSAT 1B (GO-32)      
1 25397U 98043D   26170.59313746  .00000028  00000+0  32334-4 0  9992
2 25397  99.0068 163.4125 0001179 158.0468 202.0760 14.24428772451673
ISS (ZARYA)             
1 25544U 98067A   26170.51159304  .00008252  00000+0  15605-3 0  9990
2 25544  51.6332 288.5889 0004596 205.0015 155.0751 15.49315858572116
PCSAT (NO-44)           
1 26931U 01043C   26170.46421187  .00000069  00000+0  56710-4 0  9995
2 26931  67.0503 238.3826 0006071 264.6525  95.3885 14.31956812290773
SAUDISAT 1C (SO-50)     
1 27607U 02058C   26170.58285706  .00000730  00000+0  10364-3 0  9990
2 27607  64.5513 121.5728 0075166 262.0349  97.2222 14.83051246264814
CUTE-1 (CO-55)          
1 27844U 03031E   26170.56610412  .00000202  00000+0  10624-3 0  9992
2 27844  98.6736 179.0951 0009689 171.1603 188.9749 14.24336935192018
CUBESAT XI-IV (CO-57)   
1 27848U 03031J   26170.48547204  .00000165  00000+0  91471-4 0  9993
2 27848  98.6765 178.7263 0009188 190.0962 170.0034 14.23621824191705
MOZHAETS 4 (RS22)       
1 27939U 03042A   26170.65891388  .00000484  00000+0  82899-4 0  9998
2 27939  98.3467 355.0870 0009920 260.7550 171.6812 14.73470070215919
CUBESAT XI-V            
1 28895U 05043F   26170.37304894  .00001074  00000+0  17676-3 0  9999
2 28895  98.2987 326.0406 0013797 193.6141 166.4695 14.72636457102072
CUTE-1.7+APD II (CO-65) 
1 32785U 08021C   26170.56893747  .00004483  00000+0  28387-3 0  9990
2 32785  97.8277 152.0370 0009529  31.2532 328.9261 15.09469530985551
SEEDS II (CO-66)        
1 32791U 08021J   26170.55102446  .00014814  00000+0  46963-3 0  9994
2 32791  97.7522 168.5617 0000744 349.7207  10.4018 15.32817335987654
YUBILEINY (RS30)        
1 32953U 08025A   26170.59328194 -.00000005  00000+0 -10356-3 0  9998
2 32953  82.5039 353.9426 0018776 308.4356  51.5038 12.43179384819991
KKS-1 (KISEKI)          
1 33499U 09002H   26170.55044467  .00000978  00000+0  12676-3 0  9998
2 33499  98.1188  93.0302 0006436 286.6820  73.3687 14.83128941936545
SWISSCUBE               
1 35932U 09051B   26170.49485083  .00000714  00000+0  15057-3 0  9996
2 35932  98.4033  78.4234 0006120 194.9900 165.1121 14.62485188889492
BEESAT-1                
1 35933U 09051C   26170.50548631  .00000604  00000+0  13109-3 0  9992
2 35933  98.3961  78.0648 0004361 208.2389 151.8576 14.61723595889528
ITUPSAT1                
1 35935U 09051E   26170.29286771  .00000568  00000+0  12725-3 0  9996
2 35935  98.4046  77.0386 0006335 226.1339 133.9337 14.60443384889047
XIWANG-1 (HOPE-1)       
1 36122U 09072B   26170.59985396  .00000181  00000+0  58987-3 0  9991
2 36122 100.4034 124.3941 0006899 225.3948 134.6603 13.16440393793328
O/OREOS (USA 219)       
1 37224U 10062C   26170.13826809  .00001731  00000+0  16904-3 0  9994
2 37224  71.9701  75.9200 0012618  58.9318 301.3090 14.93751304116933
JUGNU                   
1 37839U 11058B   26170.40974200  .00000394  00000+0  66043-4 0  9995
2 37839  19.9617 294.9273 0018623 100.5982 300.1635 14.13777315759341
SRMSAT                  
1 37841U 11058D   26170.35988047  .00000354  00000+0  48474-4 0  9990
2 37841  19.9728  46.3158 0011744 227.6220 288.1945 14.11575972758128
STRAND-1                
1 39090U 13009E   26170.42314841  .00000193  00000+0  79379-4 0  9998
2 39090  98.3923 350.6024 0007842 217.8573 142.2063 14.37164306697387
ZACUBE-1 (TSHEPISOSAT)  
1 39417U 13066B   26170.47359992  .00002409  00000+0  18943-3 0  9996
2 39417  97.8074 132.8224 0041095 239.8049 119.9102 15.01199188681075
GOMX-1                  
1 39430U 13066Q   26170.50113065  .00001376  00000+0  21150-3 0  9990
2 39430  97.6476  10.8173 0130107  70.2331 291.2853 14.69467011670257
